[{"OBJECT_NAME":"STARLINK-1983","OBJECT_ID":"2021-012L","EPOCH":"2026-03-09T23:43:29.316000","MEAN_MOTION":15.29345071,"ECCENTRICITY":0.00014952,"INCLINATION":53.1564,"RA_OF_ASC_NODE":48.1538,"ARG_OF_PERICENTER":93.056,"MEAN_ANOMALY":267.0611,"EPHEMERIS_TYPE":0,"CLASSIFICATION_TYPE":"U","NORAD_CAT_ID":47630,"ELEMENT_SET_NO":999,"REV_AT_EPOCH":28032,"BSTAR":-0.00037078918,"MEAN_MOTION_DOT":-0.00011036,"MEAN_MOTION_DDOT":0},{"OBJECT_NAME":"OBJECT N","OBJECT_ID":"2019-093N","EPOCH":"2026-03-09T21:41:56.087232","MEAN_MOTION":15.29897693,"ECCENTRICITY":0.0006278,"INCLINATION":98.0505,"RA_OF_ASC_NODE":226.9456,"ARG_OF_PERICENTER":33.3806,"MEAN_ANOMALY":326.7828,"EPHEMERIS_TYPE":0,"CLASSIFICATION_TYPE":"U","NORAD_CAT_ID":44891,"ELEMENT_SET_NO":999,"REV_AT_EPOCH":33957,"BSTAR":0.0010567776,"MEAN_MOTION_DOT":0.00030617,"MEAN_MOTION_DDOT":0}]
